[
    {
        "Altitude(m)": 607895.7938274472,
        "Argument of Periapsis(deg)": 0.0,
        "Eccentricity": 0.0,
        "Inclination(deg)": 60.0,
        "Latitude(deg)": 40.998275783614595,
        "Longitude(deg)": -34.91141898706531,
        "Mean Anomaly(deg)": -229.09089999999998,
        "RAAN(deg)": 275.0,
        "Satellite Name": "Test1 1218",
        "Satellite Number": 1218,
        "Semi-Major Axis(m)": 6980739.136638005,
        "Time(s)": 0
    },
    {
        "Altitude(m)": 607795.1069683828,
        "Argument of Periapsis(deg)": 0.00010418945913296404,
        "Eccentricity": 0.0,
        "Inclination(deg)": 60.0,
        "Latitude(deg)": 40.53060068697098,
        "Longitude(deg)": -34.41482456219846,
        "Mean Anomaly(deg)": -228.4707938545382,
        "RAAN(deg)": 274.9995799508602,
        "Satellite Name": "Test1 1218",
        "Satellite Number": 1218,
        "Semi-Major Axis(m)": 6980739.136638005,
        "Time(s)": 10
    }
]